<?xml version="1.0" encoding="UTF-8"?><osm version="0.6" generator="Overpass API 0.7.62.4 2390de5a">
<note>The data included in this document is from www.openstreetmap.org. The data is made available under ODbL.</note>
<meta osm_base="2026-09-13T10:18:51Z"/>

  <node id="60917111" lat="23.7275160" lon="90.4201546"/>
  <node id="60917561" lat="23.7303158" lon="90.4151097">
    <tag k="junction" v="yes"/>
    <tag k="name" v="দৈনিক বাংলা মোড়"/>
    <tag k="name:bn" v="দৈনিক বাংলা মোড়"/>
    <tag k="name:en" v="Doinik Bangla Mor"/>
  </node>
  <node id="264891857" lat="23.7286053" lon="90.4218068"/>
  <node id="264891858" lat="23.7285833" lon="90.4207957"/>
  <node id="264891859" lat="23.7286218" lon="90.4204844"/>
  <node id="264891860" lat="23.7287321" lon="90.4201028"/>
  <node id="264891861" lat="23.7289716" lon="90.4196975"/>
  <node id="264891862" lat="23.7291706" lon="90.4194122"/>
  <node id="264891863" lat="23.7293621" lon="90.4191715"/>
  <node id="264891864" lat="23.7297963" lon="90.4186799"/>
  <node id="264891865" lat="23.7300316" lon="90.4182846"/>
  <node id="264891866" lat="23.7305878" lon="90.4172247"/>
  <node id="264891895" lat="23.7248632" lon="90.4131136"/>
  <node id="264891896" lat="23.7251092" lon="90.4143223"/>
  <node id="264891897" lat="23.7256566" lon="90.4149620"/>
  <node id="264891930" lat="23.7280368" lon="90.4167233">
    <tag k="junction" v="yes"/>
    <tag k="name" v="বলাকা চত্বর"/>
    <tag k="name:bn" v="বলাকা চত্বর"/>
    <tag k="name:en" v="Balaka Chottor"/>
  </node>
  <node id="264891932" lat="23.7280696" lon="90.4150863"/>
  <node id="264891944" lat="23.7269613" lon="90.4169208"/>
  <node id="264891945" lat="23.7269248" lon="90.4172960"/>
  <node id="264891946" lat="23.7268250" lon="90.4179440"/>
  <node id="264891947" lat="23.7267474" lon="90.4185491"/>
  <node id="264891948" lat="23.7266655" lon="90.4191594"/>
  <node id="264891962" lat="23.7274979" lon="90.4192306"/>
  <node id="321511906" lat="23.7253293" lon="90.4146480"/>
  <node id="321511924" lat="23.7258781" lon="90.4150871"/>
  <node id="387806314" lat="23.7291902" lon="90.4159505"/>
  <node id="387806315" lat="23.7287369" lon="90.4156660"/>
  <node id="387806316" lat="23.7286075" lon="90.4156506"/>
  <node id="387806317" lat="23.7282662" lon="90.4156831"/>
  <node id="387807365" lat="23.7282442" lon="90.4199243"/>
  <node id="387807366" lat="23.7290851" lon="90.4184644"/>
  <node id="387807367" lat="23.7303538" lon="90.4162071"/>
  <node id="387807572" lat="23.7298899" lon="90.4160286"/>
  <node id="387807573" lat="23.7309925" lon="90.4163560"/>
  <node id="387807578" lat="23.7316209" lon="90.4163100"/>
  <node id="387807583" lat="23.7319313" lon="90.4164966"/>
  <node id="387807586" lat="23.7320398" lon="90.4165510"/>
  <node id="387807590" lat="23.7326749" lon="90.4173068"/>
  <node id="387810560" lat="23.7278604" lon="90.4176521"/>
  <node id="387810563" lat="23.7295854" lon="90.4189172"/>
  <node id="387810798" lat="23.7279768" lon="90.4204496"/>
  <node id="387811690" lat="23.7275412" lon="90.4212108"/>
  <node id="387811761" lat="23.7284995" lon="90.4194450"/>
  <node id="387811858" lat="23.7299113" lon="90.4185010"/>
  <node id="387812041" lat="23.7296480" lon="90.4182809"/>
  <node id="387812042" lat="23.7302454" lon="90.4172926"/>
  <node id="387812762" lat="23.7296471" lon="90.4174542"/>
  <node id="387812763" lat="23.7300026" lon="90.4177194"/>
  <node id="387813463" lat="23.7285146" lon="90.4170896"/>
  <node id="387813687" lat="23.7289402" lon="90.4163633"/>
  <node id="387814216" lat="23.7267434" lon="90.4166058"/>
  <node id="387814391" lat="23.7272705" lon="90.4180555"/>
  <node id="387814392" lat="23.7274118" lon="90.4170186"/>
  <node id="387828678" lat="23.7281367" lon="90.4178154"/>
  <node id="1556433702" lat="23.7280776" lon="90.4191585"/>
  <node id="2320155051" lat="23.7302347" lon="90.4116944"/>
  <node id="2830970784" lat="23.7267487" lon="90.4214771"/>
  <node id="2990717131" lat="23.7275242" lon="90.4145650"/>
  <node id="3015254156" lat="23.7301379" lon="90.4102074"/>
  <node id="3396177223" lat="23.7295518" lon="90.4150865"/>
  <node id="4467281705" lat="23.7321207" lon="90.4151403"/>
  <node id="4467281707" lat="23.7322885" lon="90.4151637"/>
  <node id="4467281709" lat="23.7324247" lon="90.4151913"/>
  <node id="4467281711" lat="23.7331286" lon="90.4154976"/>
  <node id="4467281715" lat="23.7338138" lon="90.4158759"/>
  <node id="4467281717" lat="23.7341237" lon="90.4161015"/>
  <node id="4467281719" lat="23.7344019" lon="90.4163487"/>
  <node id="4689676490" lat="23.7259406" lon="90.4166220"/>
  <node id="4823690506" lat="23.7315605" lon="90.4151116">
    <tag k="junction" v="yes"/>
    <tag k="name" v="ফকিরাপুল পানির ট্যাঙ্ক মোড়"/>
    <tag k="name:bn" v="ফকিরাপুল পানির ট্যাঙ্ক মোড়"/>
    <tag k="name:en" v="Fakirapool Panir Tanker Mor"/>
  </node>
  <node id="4823690508" lat="23.7302855" lon="90.4152241">
    <tag k="junction" v="yes"/>
    <tag k="name" v="দৈনিক বাংলা মোড়"/>
  </node>
  <node id="4894766058" lat="23.7276324" lon="90.4187099"/>
  <node id="4894998167" lat="23.7276616" lon="90.4156317"/>
  <node id="4894998168" lat="23.7276309" lon="90.4156787"/>
  <node id="4894998169" lat="23.7276147" lon="90.4157337"/>
  <node id="4894998170" lat="23.7276147" lon="90.4157914"/>
  <node id="4894998171" lat="23.7276551" lon="90.4158856"/>
  <node id="4894998172" lat="23.7276916" lon="90.4159198"/>
  <node id="4894998173" lat="23.7277353" lon="90.4159415"/>
  <node id="4894998174" lat="23.7277829" lon="90.4159491"/>
  <node id="4894998175" lat="23.7278645" lon="90.4159268"/>
  <node id="4894998176" lat="23.7279038" lon="90.4158949"/>
  <node id="4894998177" lat="23.7279333" lon="90.4158523"/>
  <node id="4894998178" lat="23.7279504" lon="90.4158022"/>
  <node id="4894998179" lat="23.7279539" lon="90.4157489"/>
  <node id="4894998181" lat="23.7279404" lon="90.4156886"/>
  <node id="4894998182" lat="23.7279095" lon="90.4156365"/>
  <node id="4894998183" lat="23.7278647" lon="90.4155983"/>
  <node id="4894998184" lat="23.7277541" lon="90.4155787"/>
  <node id="4894998185" lat="23.7277040" lon="90.4155973"/>
  <node id="4896622105" lat="23.7294704" lon="90.4181542"/>
  <node id="4896622115" lat="23.7289415" lon="90.4176616"/>
  <node id="4896622116" lat="23.7292715" lon="90.4178978"/>
  <node id="4896622117" lat="23.7293169" lon="90.4180444"/>
  <node id="4896900028" lat="23.7296608" lon="90.4188346"/>
  <node id="4896900039" lat="23.7285758" lon="90.4213726"/>
  <node id="4901472494" lat="23.7261522" lon="90.4151100"/>
  <node id="4901472495" lat="23.7261440" lon="90.4155015"/>
  <node id="4901472496" lat="23.7265382" lon="90.4155015"/>
  <node id="4901472497" lat="23.7267476" lon="90.4153271"/>
  <node id="4901472513" lat="23.7273614" lon="90.4173886"/>
  <node id="4901472530" lat="23.7259304" lon="90.4160459"/>
  <node id="4901472531" lat="23.7267455" lon="90.4160271"/>
  <node id="4901472532" lat="23.7259338" lon="90.4162623"/>
  <node id="4901472533" lat="23.7267407" lon="90.4162527"/>
  <node id="4901472586" lat="23.7248975" lon="90.4125319"/>
  <node id="4901472587" lat="23.7249530" lon="90.4123682"/>
  <node id="4901472588" lat="23.7250035" lon="90.4122845"/>
  <node id="4901472589" lat="23.7251493" lon="90.4121120"/>
  <node id="4901472597" lat="23.7250056" lon="90.4141024"/>
  <node id="4901472598" lat="23.7249301" lon="90.4138741"/>
  <node id="4901472599" lat="23.7248705" lon="90.4135718"/>
  <node id="4901582598" lat="23.7298917" lon="90.4170445"/>
  <node id="4901582599" lat="23.7292215" lon="90.4171703"/>
  <node id="4903248134" lat="23.7295360" lon="90.4144290"/>
  <node id="4903248139" lat="23.7275254" lon="90.4150951"/>
  <node id="4903248227" lat="23.7275863" lon="90.4145842"/>
  <node id="4903248228" lat="23.7276784" lon="90.4146078"/>
  <node id="4903248229" lat="23.7277975" lon="90.4146172"/>
  <node id="4903248230" lat="23.7279375" lon="90.4146293"/>
  <node id="4903248231" lat="23.7280725" lon="90.4146360"/>
  <node id="4903248232" lat="23.7282125" lon="90.4146172"/>
  <node id="4903248233" lat="23.7283512" lon="90.4145743"/>
  <node id="4903248234" lat="23.7284789" lon="90.4145247"/>
  <node id="4903248235" lat="23.7286360" lon="90.4144482"/>
  <node id="4903248236" lat="23.7287122" lon="90.4143973"/>
  <node id="4903248237" lat="23.7287957" lon="90.4143181"/>
  <node id="4903248238" lat="23.7288619" lon="90.4142377"/>
  <node id="4903248239" lat="23.7289123" lon="90.4141599"/>
  <node id="4903248240" lat="23.7289705" lon="90.4140476"/>
  <node id="4903248241" lat="23.7290007" lon="90.4139480"/>
  <node id="4903248242" lat="23.7290363" lon="90.4138367"/>
  <node id="4903248243" lat="23.7290620" lon="90.4137228"/>
  <node id="4903248244" lat="23.7290717" lon="90.4135802"/>
  <node id="4903248246" lat="23.7290608" lon="90.4133646"/>
  <node id="4903248247" lat="23.7290068" lon="90.4131702"/>
  <node id="4903248248" lat="23.7289712" lon="90.4130495"/>
  <node id="4903248249" lat="23.7289074" lon="90.4129113"/>
  <node id="4903248250" lat="23.7288570" lon="90.4128201"/>
  <node id="4903248251" lat="23.7287821" lon="90.4127263"/>
  <node id="4903248252" lat="23.7287306" lon="90.4126793"/>
  <node id="4903248253" lat="23.7286471" lon="90.4126163"/>
  <node id="4903248254" lat="23.7285624" lon="90.4125626"/>
  <node id="4903248255" lat="23.7284728" lon="90.4125103"/>
  <node id="4903248256" lat="23.7283844" lon="90.4124808"/>
  <node id="4903248257" lat="23.7283107" lon="90.4124580"/>
  <node id="4903248258" lat="23.7282088" lon="90.4124299"/>
  <node id="4903248259" lat="23.7281355" lon="90.4124226"/>
  <node id="4903248260" lat="23.7280990" lon="90.4124178"/>
  <node id="4903248261" lat="23.7280391" lon="90.4124146"/>
  <node id="4903248262" lat="23.7279909" lon="90.4124091"/>
  <node id="4903248263" lat="23.7279413" lon="90.4124051"/>
  <node id="4903248264" lat="23.7278847" lon="90.4124030"/>
  <node id="4903248265" lat="23.7277496" lon="90.4124077"/>
  <node id="4903248266" lat="23.7276497" lon="90.4124126"/>
  <node id="4903248267" lat="23.7275254" lon="90.4124532"/>
  <node id="4903248268" lat="23.7275247" lon="90.4147795">
    <tag k="barrier" v="gate"/>
    <tag k="bicycle" v="yes"/>
    <tag k="foot" v="yes"/>
  </node>
  <node id="4903248278" lat="23.7273722" lon="90.4125339"/>
  <node id="4903407919" lat="23.7313480" lon="90.4155785"/>
  <node id="4905367630" lat="23.7302962" lon="90.4135515"/>
  <node id="4905491376" lat="23.7302368" lon="90.4113735"/>
  <node id="4907121605" lat="23.7302457" lon="90.4105450"/>
  <node id="4958351082" lat="23.7350294" lon="90.4169900"/>
  <node id="5037550989" lat="23.7248988" lon="90.4137482"/>
  <node id="5838735976" lat="23.7302232" lon="90.4151047"/>
  <node id="5838735977" lat="23.7302760" lon="90.4145578"/>
  <node id="5838735978" lat="23.7302684" lon="90.4142918"/>
  <node id="5838735979" lat="23.7302571" lon="90.4141487"/>
  <node id="5838735980" lat="23.7301911" lon="90.4135730"/>
  <node id="5838735981" lat="23.7301348" lon="90.4126091"/>
  <node id="5838735982" lat="23.7301191" lon="90.4121289"/>
  <node id="5838735983" lat="23.7301197" lon="90.4116321"/>
  <node id="5838735984" lat="23.7301227" lon="90.4114346"/>
  <node id="5838738385" lat="23.7301376" lon="90.4105551"/>
  <node id="5838738386" lat="23.7303669" lon="90.4142923"/>
  <node id="5838738387" lat="23.7303598" lon="90.4147696"/>
  <node id="5838738388" lat="23.7303506" lon="90.4141339"/>
  <node id="5838738389" lat="23.7303708" lon="90.4144903"/>
  <node id="5838738390" lat="23.7302274" lon="90.4121277"/>
  <node id="5838738391" lat="23.7302429" lon="90.4126088"/>
  <node id="6101363509" lat="23.7315696" lon="90.4163058"/>
  <node id="6101363510" lat="23.7321055" lon="90.4166047"/>
  <node id="6115441167" lat="23.7296502" lon="90.4174345"/>
  <node id="6138734176" lat="23.7302456" lon="90.4101979"/>
  <node id="6139227771" lat="23.7248828" lon="90.4126846"/>
  <node id="6139732580" lat="23.7250928" lon="90.4145200"/>
  <node id="6139732581" lat="23.7252168" lon="90.4146668"/>
  <node id="6139732582" lat="23.7253801" lon="90.4148693"/>
  <node id="6139732584" lat="23.7257219" lon="90.4151450"/>
  <node id="6139733539" lat="23.7260236" lon="90.4152508"/>
  <node id="6139733540" lat="23.7260271" lon="90.4154125"/>
  <node id="6139733541" lat="23.7260504" lon="90.4154755"/>
  <node id="6139733560" lat="23.7249909" lon="90.4143637"/>
  <node id="6139734067" lat="23.7269633" lon="90.4207872"/>
  <node id="6139734068" lat="23.7270544" lon="90.4208938"/>
  <node id="6139734071" lat="23.7300780" lon="90.4154799"/>
  <node id="6139734072" lat="23.7301231" lon="90.4153830"/>
  <node id="6139734073" lat="23.7301925" lon="90.4152274"/>
  <node id="6139734074" lat="23.7307073" lon="90.4152315"/>
  <node id="6139734075" lat="23.7311468" lon="90.4152341"/>
  <node id="6139734076" lat="23.7315024" lon="90.4152423"/>
  <node id="6139734077" lat="23.7286651" lon="90.4181537"/>
  <node id="6139734091" lat="23.7265974" lon="90.4213741"/>
  <node id="6139734092" lat="23.7266704" lon="90.4213147"/>
  <node id="6139734093" lat="23.7267282" lon="90.4212120"/>
  <node id="6139734094" lat="23.7268421" lon="90.4210061"/>
  <node id="6139734185" lat="23.7258128" lon="90.4152027"/>
  <node id="6139734186" lat="23.7259227" lon="90.4152408"/>
  <node id="6139734187" lat="23.7267471" lon="90.4152489"/>
  <node id="6139734188" lat="23.7271544" lon="90.4152522"/>
  <node id="6139734189" lat="23.7277331" lon="90.4152624"/>
  <node id="6139734191" lat="23.7286606" lon="90.4152542"/>
  <node id="6139734194" lat="23.7274905" lon="90.4198516"/>
  <node id="6139734195" lat="23.7279931" lon="90.4189781"/>
  <node id="6139734196" lat="23.7285093" lon="90.4180668"/>
  <node id="6139734197" lat="23.7289333" lon="90.4173505"/>
  <node id="6139734198" lat="23.7294650" lon="90.4167540"/>
  <node id="6139734199" lat="23.7301720" lon="90.4152784"/>
  <node id="6139734200" lat="23.7299664" lon="90.4156588"/>
  <node id="6139734201" lat="23.7296090" lon="90.4162210"/>
  <node id="6139734202" lat="23.7293406" lon="90.4166771"/>
  <node id="6139734204" lat="23.7259264" lon="90.4151068"/>
  <node id="6139734205" lat="23.7260684" lon="90.4154900"/>
  <node id="6139734207" lat="23.7248583" lon="90.4132922"/>
  <node id="6139734210" lat="23.7252070" lon="90.4144858"/>
  <node id="6139734213" lat="23.7302508" lon="90.4153385"/>
  <node id="6139734214" lat="23.7301888" lon="90.4154726"/>
  <node id="6139734288" lat="23.7248672" lon="90.4130002"/>
  <node id="6139736282" lat="23.7349713" lon="90.4171111"/>
  <node id="6139736795" lat="23.7286151" lon="90.4219062"/>
  <node id="6139736798" lat="23.7274643" lon="90.4217592"/>
  <node id="6139736802" lat="23.7320699" lon="90.4152580"/>
  <node id="6139736803" lat="23.7325292" lon="90.4153816"/>
  <node id="6139736804" lat="23.7329133" lon="90.4155385"/>
  <node id="6139736805" lat="23.7334126" lon="90.4157826"/>
  <node id="6139736807" lat="23.7340453" lon="90.4162038"/>
  <node id="6139736808" lat="23.7341938" lon="90.4163312"/>
  <node id="6139736809" lat="23.7345032" lon="90.4166356"/>
  <node id="6139736810" lat="23.7348835" lon="90.4170149">
    <tag k="crossing" v="uncontrolled"/>
    <tag k="crossing:markings" v="yes"/>
    <tag k="highway" v="crossing"/>
  </node>
  <node id="6139736811" lat="23.7351402" lon="90.4171261"/>
  <node id="6139736812" lat="23.7325741" lon="90.4152370"/>
  <node id="6139867438" lat="23.7322553" lon="90.4152904"/>
  <node id="6139880312" lat="23.7302588" lon="90.4148165"/>
  <node id="6172855867" lat="23.7295055" lon="90.4173596"/>
  <node id="6559200786" lat="23.7255495" lon="90.4150182"/>
  <node id="7130181490" lat="23.7279362" lon="90.4205261"/>
  <node id="7705686042" lat="23.7285963" lon="90.4207090"/>
  <node id="8895335471" lat="23.7302278" lon="90.4138931"/>
  <node id="9366927265" lat="23.7267650" lon="90.4214128"/>
  <node id="9907465527" lat="23.7290695" lon="90.4174401"/>
  <node id="9907465528" lat="23.7281529" lon="90.4168461"/>
  <node id="9907465529" lat="23.7280937" lon="90.4167941"/>
  <node id="9907465530" lat="23.7288680" lon="90.4174596"/>
  <node id="9907465531" lat="23.7284554" lon="90.4172033"/>
  <node id="9907465532" lat="23.7281186" lon="90.4169689"/>
  <node id="9907465533" lat="23.7280608" lon="90.4169689"/>
  <node id="9907465534" lat="23.7279440" lon="90.4170198"/>
  <node id="9907465535" lat="23.7280915" lon="90.4169662"/>
  <node id="9907465536" lat="23.7290076" lon="90.4175473"/>
  <node id="9907465537" lat="23.7278755" lon="90.4161004"/>
  <node id="9907465538" lat="23.7279726" lon="90.4168001"/>
  <node id="9907465539" lat="23.7277979" lon="90.4160766"/>
  <node id="9907465540" lat="23.7278250" lon="90.4159435"/>
  <node id="9907465541" lat="23.7276288" lon="90.4158416"/>
  <node id="9907465542" lat="23.7275287" lon="90.4152632"/>
  <node id="9907465543" lat="23.7278109" lon="90.4155783"/>
  <node id="9907465544" lat="23.7277303" lon="90.4150918"/>
  <node id="9938975071" lat="23.7257860" lon="90.4150483"/>
  <node id="10100597639" lat="23.7282571" lon="90.4199001"/>
  <node id="10100597641" lat="23.7293125" lon="90.4179680"/>
  <node id="10863866989" lat="23.7287607" lon="90.4148278"/>
  <node id="10863866990" lat="23.7287969" lon="90.4148003"/>
  <node id="10863866991" lat="23.7289841" lon="90.4148003"/>
  <node id="10863866992" lat="23.7291621" lon="90.4148083"/>
  <node id="10863866993" lat="23.7292229" lon="90.4148512"/>
  <node id="10863866994" lat="23.7292610" lon="90.4149076"/>
  <node id="10863866995" lat="23.7292898" lon="90.4150865"/>
  <node id="11199116087" lat="23.7250617" lon="90.4122130"/>
  <node id="11199116088" lat="23.7249191" lon="90.4124541"/>
  <node id="11308881906" lat="23.7300982" lon="90.4181576"/>
  <node id="11308881907" lat="23.7304416" lon="90.4183123"/>
  <node id="11308881908" lat="23.7306103" lon="90.4183844"/>
  <node id="11308881909" lat="23.7308425" lon="90.4184605"/>
  <node id="11308881910" lat="23.7313577" lon="90.4192323"/>
  <node id="11308881911" lat="23.7313510" lon="90.4163409"/>
  <node id="11308881916" lat="23.7307245" lon="90.4184028"/>
  <node id="11308881917" lat="23.7311686" lon="90.4189501"/>
  <node id="11308959053" lat="23.7322555" lon="90.4151591"/>
  <node id="11329020310" lat="23.7318409" lon="90.4164498"/>
  <node id="11347588304" lat="23.7270979" lon="90.4180123"/>
  <node id="11347588305" lat="23.7269963" lon="90.4185942"/>
  <node id="11350360517" lat="23.7248788" lon="90.4136234"/>
  <node id="11353381342" lat="23.7266726" lon="90.4191064"/>
  <node id="11353381343" lat="23.7268368" lon="90.4158530"/>
  <node id="11353381344" lat="23.7267461" lon="90.4158363"/>
  <node id="11353381345" lat="23.7268227" lon="90.4158390"/>
  <node id="11353381346" lat="23.7268442" lon="90.4158832"/>
  <node id="11353381347" lat="23.7269166" lon="90.4161568"/>
  <node id="11353381348" lat="23.7269516" lon="90.4162299"/>
  <node id="11353381349" lat="23.7269811" lon="90.4162467"/>
  <node id="11353381350" lat="23.7271278" lon="90.4162454"/>
  <node id="11353381351" lat="23.7273125" lon="90.4162881"/>
  <node id="11357303457" lat="23.7294390" lon="90.4177836"/>
  <node id="11357303458" lat="23.7292184" lon="90.4185797"/>
  <node id="11469059827" lat="23.7302741" lon="90.4161795"/>
  <node id="11469059829" lat="23.7311693" lon="90.4163646"/>
  <node id="11469059830" lat="23.7321902" lon="90.4166788"/>
  <node id="11469059831" lat="23.7323007" lon="90.4167163"/>
  <node id="11469059832" lat="23.7324529" lon="90.4167566"/>
  <node id="11469059833" lat="23.7325806" lon="90.4167776"/>
  <node id="11469059834" lat="23.7326051" lon="90.4168290"/>
  <node id="11469059835" lat="23.7326248" lon="90.4170463"/>
  <node id="11469059836" lat="23.7326248" lon="90.4171509"/>
  <node id="11469059837" lat="23.7326444" lon="90.4172689"/>
  <node id="11469059838" lat="23.7326616" lon="90.4154290"/>
  <node id="11740431352" lat="23.7270905" lon="90.4166756"/>
  <node id="11866435973" lat="23.7325953" lon="90.4168153"/>
  <node id="11866435978" lat="23.7337746" lon="90.4160048"/>
  <node id="12033093284" lat="23.7278873" lon="90.4191619">
    <tag k="bus" v="yes"/>
    <tag k="highway" v="bus_stop"/>
    <tag k="name" v="BRTC Bus Counter Bus stop"/>
    <tag k="public_transport" v="platform"/>
  </node>
  <node id="12042938883" lat="23.7349630" lon="90.4168987">
    <tag k="crossing" v="uncontrolled"/>
    <tag k="crossing:markings" v="yes"/>
    <tag k="highway" v="crossing"/>
  </node>
  <node id="12042938885" lat="23.7350688" lon="90.4170494"/>
  <node id="12042938887" lat="23.7351033" lon="90.4170931"/>
  <node id="12042938898" lat="23.7342542" lon="90.4162117"/>
  <node id="12042938899" lat="23.7343418" lon="90.4164800"/>
  <node id="12042938900" lat="23.7346016" lon="90.4165279"/>
  <node id="12042938901" lat="23.7339100" lon="90.4160989"/>
  <node id="12042938902" lat="23.7339688" lon="90.4159820"/>
  <node id="12042938903" lat="23.7334442" lon="90.4156525"/>
  <node id="12042938904" lat="23.7332840" lon="90.4155710"/>
  <node id="12042938905" lat="23.7331126" lon="90.4156310"/>
  <node id="12042938906" lat="23.7323922" lon="90.4153320"/>
  <node id="12042967926" lat="23.7349893" lon="90.4169349"/>
  <node id="12042967927" lat="23.7349132" lon="90.4170474"/>
  <node id="12604565118" lat="23.7286927" lon="90.4177563">
    <tag k="bus" v="yes"/>
    <tag k="highway" v="bus_stop"/>
    <tag k="name" v="City Centre(Janata Bank)"/>
    <tag k="operator" v="Gabtoli Express"/>
    <tag k="public_transport" v="platform"/>
  </node>
  <node id="12604615307" lat="23.7287402" lon="90.4176758"/>
  <node id="12732370192" lat="23.7303157" lon="90.4137601"/>
  <node id="12987773018" lat="23.7326196" lon="90.4169884"/>
  <node id="13304528543" lat="23.7275973" lon="90.4210637"/>
  <way id="24403432">
    <nd ref="6139734076"/>
    <nd ref="4903407919"/>
    <nd ref="387807573"/>
    <nd ref="264891866"/>
    <nd ref="11308881906"/>
    <nd ref="264891865"/>
    <nd ref="387811858"/>
    <nd ref="264891864"/>
    <nd ref="4896900028"/>
    <nd ref="387810563"/>
    <nd ref="264891863"/>
    <nd ref="264891862"/>
    <nd ref="264891861"/>
    <nd ref="264891860"/>
    <nd ref="264891859"/>
    <nd ref="7705686042"/>
    <nd ref="264891858"/>
    <nd ref="4896900039"/>
    <nd ref="264891857"/>
    <nd ref="6139736795"/>
    <tag k="highway" v="tertiary"/>
    <tag k="name" v="বক্স কালভার্ট রোড"/>
    <tag k="name:bn" v="বক্স কালভার্ট রোড"/>
    <tag k="name:en" v="Box Culvert Road"/>
  </way>
  <way id="24403441">
    <nd ref="4894998175"/>
    <nd ref="9907465537"/>
    <nd ref="264891930"/>
    <nd ref="9907465529"/>
    <nd ref="9907465528"/>
    <nd ref="387813463"/>
    <nd ref="6139734197"/>
    <tag k="highway" v="secondary"/>
    <tag k="name" v="Dilkusha Road"/>
    <tag k="oneway" v="yes"/>
  </way>
  <way id="24403445">
    <nd ref="4894998170"/>
    <nd ref="11353381351"/>
    <nd ref="11740431352"/>
    <nd ref="264891944"/>
    <nd ref="264891945"/>
    <nd ref="264891946"/>
    <nd ref="264891947"/>
    <nd ref="11353381342"/>
    <nd ref="264891948"/>
    <tag k="highway" v="tertiary"/>
    <tag k="name" v="দিলকুশা সড়ক"/>
    <tag k="name:bn" v="দিলকুশা সড়ক"/>
    <tag k="name:en" v="Dilkusha Road"/>
  </way>
  <way id="24448678">
    <nd ref="4823690508"/>
    <nd ref="6139734213"/>
    <nd ref="6139734214"/>
    <nd ref="387807572"/>
    <nd ref="6139734198"/>
    <nd ref="4901582599"/>
    <nd ref="9907465527"/>
    <nd ref="9907465536"/>
    <nd ref="4896622115"/>
    <nd ref="6139734077"/>
    <nd ref="1556433702"/>
    <nd ref="60917111"/>
    <nd ref="6139734068"/>
    <nd ref="9366927265"/>
    <nd ref="2830970784"/>
    <tag k="highway" v="primary"/>
    <tag k="lanes" v="2"/>
    <tag k="lit" v="yes"/>
    <tag k="name" v="মতিঝিল সড়ক"/>
    <tag k="name:bn" v="মতিঝিল সড়ক"/>
    <tag k="name:en" v="Motijheel Road"/>
    <tag k="oneway" v="yes"/>
    <tag k="surface" v="asphalt"/>
  </way>
  <way id="24477470">
    <nd ref="6138734176"/>
    <nd ref="4907121605"/>
    <nd ref="4905491376"/>
    <nd ref="2320155051"/>
    <nd ref="5838738390"/>
    <nd ref="5838738391"/>
    <nd ref="4905367630"/>
    <nd ref="12732370192"/>
    <nd ref="5838738388"/>
    <nd ref="5838738386"/>
    <nd ref="5838738389"/>
    <nd ref="5838738387"/>
    <nd ref="60917561"/>
    <tag k="highway" v="primary"/>
    <tag k="lanes" v="2"/>
    <tag k="lanes:backward" v="1"/>
    <tag k="lanes:forward" v="1"/>
    <tag k="lit" v="yes"/>
    <tag k="name" v="বাইতুল মোকাররম সড়ক"/>
    <tag k="name:bn" v="বাইতুল মোকাররম সড়ক"/>
    <tag k="name:en" v="Baitul Mokarram Road"/>
    <tag k="oneway" v="yes"/>
    <tag k="sidewalk" v="both"/>
    <tag k="surface" v="asphalt"/>
  </way>
  <way id="24801440">
    <nd ref="60917561"/>
    <nd ref="4823690506"/>
    <nd ref="4467281705"/>
    <nd ref="11308959053"/>
    <nd ref="4467281707"/>
    <nd ref="4467281709"/>
    <nd ref="6139736812"/>
    <nd ref="4467281711"/>
    <nd ref="12042938904"/>
    <nd ref="12042938903"/>
    <nd ref="4467281715"/>
    <nd ref="12042938902"/>
    <nd ref="4467281717"/>
    <nd ref="12042938898"/>
    <nd ref="4467281719"/>
    <nd ref="12042938900"/>
    <nd ref="12042938883"/>
    <nd ref="12042967926"/>
    <nd ref="4958351082"/>
    <nd ref="12042938885"/>
    <nd ref="12042938887"/>
    <nd ref="6139736811"/>
    <tag k="highway" v="primary"/>
    <tag k="lanes" v="2"/>
    <tag k="lit" v="yes"/>
    <tag k="name" v="ফকিরাপুল সড়ক"/>
    <tag k="name:bn" v="ফকিরাপুল সড়ক"/>
    <tag k="name:en" v="Fakirapool Road"/>
    <tag k="oneway" v="yes"/>
  </way>
  <way id="29230575">
    <nd ref="4901472589"/>
    <nd ref="11199116087"/>
    <nd ref="4901472588"/>
    <nd ref="4901472587"/>
    <nd ref="11199116088"/>
    <nd ref="4901472586"/>
    <nd ref="6139227771"/>
    <nd ref="6139734288"/>
    <nd ref="264891895"/>
    <nd ref="6139734207"/>
    <nd ref="4901472599"/>
    <nd ref="11350360517"/>
    <nd ref="5037550989"/>
    <nd ref="4901472598"/>
    <nd ref="4901472597"/>
    <nd ref="264891896"/>
    <nd ref="6139734210"/>
    <nd ref="321511906"/>
    <nd ref="264891897"/>
    <nd ref="9938975071"/>
    <nd ref="321511924"/>
    <nd ref="6139734204"/>
    <nd ref="4901472494"/>
    <nd ref="4903248139"/>
    <nd ref="9907465544"/>
    <nd ref="264891932"/>
    <nd ref="10863866995"/>
    <nd ref="3396177223"/>
    <nd ref="5838735976"/>
    <tag k="highway" v="primary"/>
    <tag k="lanes" v="2"/>
    <tag k="lit" v="yes"/>
    <tag k="name" v="ডিআইটি এভিনিউ"/>
    <tag k="name:bn" v="ডিআইটি এভিনিউ"/>
    <tag k="name:en" v="DIT Avenue"/>
    <tag k="oneway" v="yes"/>
  </way>
  <way id="33850709">
    <nd ref="6139734201"/>
    <nd ref="387806314"/>
    <nd ref="387806315"/>
    <nd ref="387806316"/>
    <nd ref="387806317"/>
    <nd ref="4894998179"/>
    <tag k="highway" v="tertiary"/>
    <tag k="name" v="Dilkusha Road"/>
  </way>
  <way id="33850806">
    <nd ref="6139736798"/>
    <nd ref="387811690"/>
    <nd ref="13304528543"/>
    <nd ref="7130181490"/>
    <nd ref="387810798"/>
    <nd ref="387807365"/>
    <nd ref="10100597639"/>
    <nd ref="387811761"/>
    <nd ref="387807366"/>
    <nd ref="4896622117"/>
    <nd ref="10100597641"/>
    <nd ref="4896622116"/>
    <nd ref="4896622115"/>
    <tag k="highway" v="unclassified"/>
  </way>
  <way id="33850827">
    <nd ref="387807572"/>
    <nd ref="11469059827"/>
    <nd ref="387807367"/>
    <nd ref="387807573"/>
    <nd ref="11469059829"/>
    <nd ref="11308881911"/>
    <nd ref="6101363509"/>
    <nd ref="387807578"/>
    <nd ref="11329020310"/>
    <nd ref="387807583"/>
    <nd ref="387807586"/>
    <nd ref="6101363510"/>
    <nd ref="11469059830"/>
    <nd ref="11469059831"/>
    <nd ref="11469059832"/>
    <nd ref="11469059833"/>
    <nd ref="11866435973"/>
    <nd ref="11469059834"/>
    <nd ref="12987773018"/>
    <nd ref="11469059835"/>
    <nd ref="11469059836"/>
    <nd ref="11469059837"/>
    <nd ref="387807590"/>
    <tag k="highway" v="residential"/>
    <tag k="layer" v="1"/>
  </way>
  <way id="33850869">
    <nd ref="9907465534"/>
    <nd ref="387810560"/>
    <nd ref="4894766058"/>
    <nd ref="264891962"/>
    <nd ref="6139734194"/>
    <tag k="highway" v="secondary"/>
    <tag k="name" v="Dilkusha Road"/>
  </way>
  <way id="33851111">
    <nd ref="387810560"/>
    <nd ref="387828678"/>
    <nd ref="6139734196"/>
    <tag k="highway" v="unclassified"/>
  </way>
  <way id="33851195">
    <nd ref="387812041"/>
    <nd ref="387812763"/>
    <nd ref="387812042"/>
    <tag k="highway" v="unclassified"/>
  </way>
  <way id="33851206">
    <nd ref="387812762"/>
    <nd ref="387812763"/>
    <tag k="highway" v="unclassified"/>
  </way>
  <way id="33851266">
    <nd ref="387806314"/>
    <nd ref="387813687"/>
    <nd ref="387813463"/>
    <nd ref="9907465531"/>
    <nd ref="387828678"/>
    <nd ref="4894766058"/>
    <tag k="highway" v="unclassified"/>
  </way>
  <way id="33851314">
    <nd ref="387813687"/>
    <nd ref="6139734202"/>
    <tag k="highway" v="unclassified"/>
  </way>
  <way id="33851359">
    <nd ref="4689676490"/>
    <nd ref="387814216"/>
    <nd ref="11740431352"/>
    <tag k="highway" v="residential"/>
    <tag k="name" v="দিলকুশা সড়ক"/>
    <tag k="name:bn" v="দিলকুশা সড়ক"/>
    <tag k="name:en" v="Dilkusha Road"/>
  </way>
  <way id="33851374">
    <nd ref="387814391"/>
    <nd ref="4901472513"/>
    <nd ref="387814392"/>
    <tag k="highway" v="residential"/>
  </way>
  <way id="332478603">
    <nd ref="3396177223"/>
    <nd ref="4903248134"/>
    <tag k="highway" v="service"/>
  </way>
  <way id="475175861">
    <nd ref="387814392"/>
    <nd ref="264891944"/>
    <tag k="highway" v="residential"/>
  </way>
  <way id="475175862">
    <nd ref="264891946"/>
    <nd ref="11347588304"/>
    <nd ref="387814391"/>
    <tag k="highway" v="residential"/>
  </way>
  <way id="475175863">
    <nd ref="6139734187"/>
    <nd ref="4901472497"/>
    <nd ref="11353381344"/>
    <nd ref="4901472531"/>
    <nd ref="4901472533"/>
    <nd ref="387814216"/>
    <tag k="highway" v="residential"/>
  </way>
  <way id="497984023">
    <nd ref="387812762"/>
    <nd ref="6115441167"/>
    <nd ref="4901582598"/>
    <nd ref="387807367"/>
    <tag k="highway" v="unclassified"/>
  </way>
  <way id="498014074">
    <nd ref="6139734189"/>
    <nd ref="4894998184"/>
    <tag k="highway" v="secondary"/>
    <tag k="name" v="Dilkusha Road"/>
  </way>
  <way id="498014075">
    <nd ref="4894998185"/>
    <nd ref="4894998184"/>
    <nd ref="9907465543"/>
    <nd ref="4894998183"/>
    <nd ref="4894998182"/>
    <nd ref="4894998181"/>
    <nd ref="4894998179"/>
    <nd ref="4894998178"/>
    <nd ref="4894998177"/>
    <nd ref="4894998176"/>
    <nd ref="4894998175"/>
    <nd ref="9907465540"/>
    <nd ref="4894998174"/>
    <nd ref="4894998173"/>
    <nd ref="4894998172"/>
    <nd ref="4894998171"/>
    <nd ref="9907465541"/>
    <nd ref="4894998170"/>
    <nd ref="4894998169"/>
    <nd ref="4894998168"/>
    <nd ref="4894998167"/>
    <nd ref="4894998185"/>
    <tag k="highway" v="secondary"/>
    <tag k="junction" v="roundabout"/>
    <tag k="oneway" v="yes"/>
  </way>
  <way id="498809423">
    <nd ref="4901472497"/>
    <nd ref="4901472496"/>
    <nd ref="4901472495"/>
    <nd ref="6139734205"/>
    <nd ref="6139733541"/>
    <nd ref="6139733540"/>
    <nd ref="6139733539"/>
    <tag k="highway" v="service"/>
  </way>
  <way id="498809425">
    <nd ref="264891945"/>
    <nd ref="4901472513"/>
    <tag k="highway" v="residential"/>
  </way>
  <way id="498809428">
    <nd ref="4901472531"/>
    <nd ref="4901472530"/>
    <tag k="highway" v="residential"/>
  </way>
  <way id="498809429">
    <nd ref="4901472533"/>
    <nd ref="4901472532"/>
    <tag k="highway" v="residential"/>
  </way>
  <way id="498825161">
    <nd ref="387812042"/>
    <nd ref="4901582598"/>
    <nd ref="6139734198"/>
    <tag k="highway" v="unclassified"/>
  </way>
  <way id="498825162">
    <nd ref="387812762"/>
    <nd ref="6172855867"/>
    <nd ref="4901582599"/>
    <tag k="highway" v="unclassified"/>
  </way>
  <way id="498993380">
    <nd ref="4903248278"/>
    <nd ref="4903248267"/>
    <nd ref="4903248266"/>
    <nd ref="4903248265"/>
    <nd ref="4903248264"/>
    <nd ref="4903248263"/>
    <nd ref="4903248262"/>
    <nd ref="4903248261"/>
    <nd ref="4903248260"/>
    <nd ref="4903248259"/>
    <nd ref="4903248258"/>
    <nd ref="4903248257"/>
    <nd ref="4903248256"/>
    <nd ref="4903248255"/>
    <nd ref="4903248254"/>
    <nd ref="4903248253"/>
    <nd ref="4903248252"/>
    <nd ref="4903248251"/>
    <nd ref="4903248250"/>
    <nd ref="4903248249"/>
    <nd ref="4903248248"/>
    <nd ref="4903248247"/>
    <nd ref="4903248246"/>
    <nd ref="4903248244"/>
    <nd ref="4903248243"/>
    <nd ref="4903248242"/>
    <nd ref="4903248241"/>
    <nd ref="4903248240"/>
    <nd ref="4903248239"/>
    <nd ref="4903248238"/>
    <nd ref="4903248237"/>
    <nd ref="4903248236"/>
    <nd ref="4903248235"/>
    <nd ref="4903248234"/>
    <nd ref="4903248233"/>
    <nd ref="4903248232"/>
    <nd ref="4903248231"/>
    <nd ref="4903248230"/>
    <nd ref="4903248229"/>
    <nd ref="4903248228"/>
    <nd ref="4903248227"/>
    <nd ref="2990717131"/>
    <tag k="highway" v="service"/>
  </way>
  <way id="617676922">
    <nd ref="5838735976"/>
    <nd ref="6139880312"/>
    <nd ref="5838735977"/>
    <nd ref="5838735978"/>
    <nd ref="5838735979"/>
    <nd ref="8895335471"/>
    <nd ref="5838735980"/>
    <nd ref="5838735981"/>
    <nd ref="5838735982"/>
    <nd ref="5838735983"/>
    <nd ref="5838735984"/>
    <nd ref="5838738385"/>
    <nd ref="3015254156"/>
    <tag k="highway" v="primary"/>
    <tag k="lanes" v="2"/>
    <tag k="lanes:backward" v="1"/>
    <tag k="lanes:forward" v="1"/>
    <tag k="lit" v="yes"/>
    <tag k="name" v="বাইতুল মোকাররম সড়ক"/>
    <tag k="name:bn" v="বাইতুল মোকাররম সড়ক"/>
    <tag k="name:en" v="Baitul Mokarram Road"/>
    <tag k="oneway" v="yes"/>
    <tag k="sidewalk" v="both"/>
    <tag k="surface" v="asphalt"/>
  </way>
  <way id="655281682">
    <nd ref="60917561"/>
    <nd ref="4823690508"/>
    <nd ref="6139734073"/>
    <nd ref="5838735976"/>
    <nd ref="60917561"/>
    <tag k="highway" v="primary"/>
    <tag k="junction" v="yes"/>
    <tag k="lanes" v="1"/>
    <tag k="lit" v="yes"/>
    <tag k="name" v="দৈনিক বাংলা মোড়"/>
    <tag k="name:bn" v="দৈনিক বাংলা মোড়"/>
    <tag k="name:en" v="Doinik Bangla Mor"/>
    <tag k="oneway" v="yes"/>
    <tag k="surface" v="asphalt"/>
  </way>
  <way id="655281685">
    <nd ref="6139736282"/>
    <nd ref="12042967927"/>
    <nd ref="6139736810"/>
    <nd ref="6139736809"/>
    <nd ref="12042938899"/>
    <nd ref="6139736808"/>
    <nd ref="6139736807"/>
    <nd ref="12042938901"/>
    <nd ref="11866435978"/>
    <nd ref="6139736805"/>
    <nd ref="12042938905"/>
    <nd ref="6139736804"/>
    <nd ref="11469059838"/>
    <nd ref="6139736803"/>
    <nd ref="12042938906"/>
    <nd ref="6139867438"/>
    <nd ref="6139736802"/>
    <nd ref="6139734076"/>
    <nd ref="6139734075"/>
    <nd ref="6139734074"/>
    <nd ref="4823690508"/>
    <tag k="highway" v="primary"/>
    <tag k="lanes" v="2"/>
    <tag k="lit" v="yes"/>
    <tag k="name" v="ফকিরাপুল সড়ক"/>
    <tag k="name:bn" v="ফকিরাপুল সড়ক"/>
    <tag k="name:en" v="Fakirapool Road"/>
    <tag k="oneway" v="yes"/>
  </way>
  <way id="655281687">
    <nd ref="6139734077"/>
    <nd ref="387807366"/>
    <nd ref="11357303458"/>
    <nd ref="387810563"/>
    <tag k="highway" v="unclassified"/>
  </way>
  <way id="655281696">
    <nd ref="6139734073"/>
    <nd ref="6139734191"/>
    <nd ref="6139734189"/>
    <nd ref="9907465542"/>
    <nd ref="6139734188"/>
    <nd ref="6139734187"/>
    <nd ref="6139733539"/>
    <nd ref="6139734186"/>
    <nd ref="6139734185"/>
    <nd ref="6139732584"/>
    <nd ref="6559200786"/>
    <nd ref="6139732582"/>
    <nd ref="6139732581"/>
    <nd ref="6139732580"/>
    <nd ref="6139733560"/>
    <tag k="alt_name" v="ডিআইটি এভিনিউ"/>
    <tag k="highway" v="primary"/>
    <tag k="lanes" v="2"/>
    <tag k="name" v="ডিআইটি এভিনিউ"/>
    <tag k="name:bn" v="ডিআইটি এভিনিউ"/>
    <tag k="name:en" v="DIT Avenue"/>
    <tag k="oneway" v="yes"/>
  </way>
  <way id="655281697">
    <nd ref="6139734091"/>
    <nd ref="6139734092"/>
    <nd ref="6139734093"/>
    <nd ref="6139734094"/>
    <nd ref="6139734067"/>
    <nd ref="6139734194"/>
    <nd ref="12033093284"/>
    <nd ref="6139734195"/>
    <nd ref="6139734196"/>
    <nd ref="12604565118"/>
    <nd ref="12604615307"/>
    <nd ref="9907465530"/>
    <nd ref="6139734197"/>
    <nd ref="6139734202"/>
    <nd ref="6139734201"/>
    <nd ref="6139734200"/>
    <nd ref="6139734071"/>
    <nd ref="6139734072"/>
    <nd ref="6139734199"/>
    <nd ref="6139734073"/>
    <tag k="highway" v="primary"/>
    <tag k="lanes" v="2"/>
    <tag k="name" v="মতিঝিল সড়ক"/>
    <tag k="name:bn" v="মতিঝিল সড়ক"/>
    <tag k="name:en" v="Motijheel Road"/>
    <tag k="oneway" v="yes"/>
    <tag k="surface" v="asphalt"/>
  </way>
  <way id="1080931093">
    <nd ref="9907465527"/>
    <nd ref="6139734197"/>
    <tag k="highway" v="primary_link"/>
  </way>
  <way id="1080931094">
    <nd ref="9907465530"/>
    <nd ref="9907465531"/>
    <nd ref="9907465532"/>
    <nd ref="9907465535"/>
    <nd ref="9907465533"/>
    <nd ref="9907465534"/>
    <tag k="highway" v="secondary"/>
    <tag k="oneway" v="yes"/>
  </way>
  <way id="1080931095">
    <nd ref="9907465530"/>
    <nd ref="9907465536"/>
    <tag k="highway" v="primary_link"/>
  </way>
  <way id="1080931096">
    <nd ref="9907465538"/>
    <nd ref="9907465539"/>
    <nd ref="4894998174"/>
    <tag k="highway" v="secondary"/>
    <tag k="oneway" v="yes"/>
  </way>
  <way id="1080931097">
    <nd ref="4903248139"/>
    <nd ref="9907465542"/>
    <tag k="highway" v="primary_link"/>
  </way>
  <way id="1080931098">
    <nd ref="6139734189"/>
    <nd ref="9907465544"/>
    <tag k="highway" v="primary_link"/>
  </way>
  <way id="1080931099">
    <nd ref="9907465534"/>
    <nd ref="9907465538"/>
    <tag k="highway" v="secondary"/>
    <tag k="name" v="Dilkusha Road"/>
    <tag k="oneway" v="yes"/>
  </way>
  <way id="1080931100">
    <nd ref="264891930"/>
    <nd ref="9907465538"/>
    <tag k="highway" v="secondary"/>
    <tag k="name" v="Dilkusha Road"/>
  </way>
  <way id="1168163660">
    <nd ref="10863866995"/>
    <nd ref="10863866994"/>
    <nd ref="10863866993"/>
    <nd ref="10863866992"/>
    <nd ref="10863866991"/>
    <nd ref="10863866990"/>
    <nd ref="10863866989"/>
    <tag k="highway" v="service"/>
  </way>
  <way id="1220427914">
    <nd ref="11308881906"/>
    <nd ref="11308881907"/>
    <nd ref="11308881908"/>
    <nd ref="11308881916"/>
    <nd ref="11308881909"/>
    <nd ref="11308881917"/>
    <nd ref="11308881910"/>
    <tag k="highway" v="residential"/>
  </way>
  <way id="1223356382">
    <nd ref="11347588304"/>
    <nd ref="11347588305"/>
    <tag k="highway" v="residential"/>
  </way>
  <way id="1224010347">
    <nd ref="11353381351"/>
    <nd ref="11353381350"/>
    <nd ref="11353381349"/>
    <nd ref="11353381348"/>
    <nd ref="11353381347"/>
    <nd ref="11353381346"/>
    <nd ref="11353381343"/>
    <nd ref="11353381345"/>
    <nd ref="11353381344"/>
    <tag k="highway" v="service"/>
  </way>
  <way id="1224661623">
    <nd ref="387812762"/>
    <nd ref="11357303457"/>
    <nd ref="4896622117"/>
    <tag k="highway" v="unclassified"/>
  </way>
  <way id="1224661624">
    <nd ref="4896622105"/>
    <nd ref="4896622117"/>
    <tag k="highway" v="unclassified"/>
  </way>
  <way id="1224661625">
    <nd ref="387812041"/>
    <nd ref="4896622105"/>
    <tag k="highway" v="unclassified"/>
  </way>
  <way id="1447463346">
    <nd ref="4903248139"/>
    <nd ref="4903248268"/>
    <nd ref="2990717131"/>
    <tag k="highway" v="service"/>
  </way>

</osm>